[{"OBJECT_NAME":"GONETS-M 13","OBJECT_ID":"2015-020C","EPOCH":"2026-03-09T22:37:11.759808","MEAN_MOTION":12.42867615,"ECCENTRICITY":0.00136301,"INCLINATION":82.4801,"RA_OF_ASC_NODE":92.5793,"ARG_OF_PERICENTER":182.8748,"MEAN_ANOMALY":177.2255,"EPHEMERIS_TYPE":0,"CLASSIFICATION_TYPE":"U","NORAD_CAT_ID":40554,"ELEMENT_SET_NO":999,"REV_AT_EPOCH":49637,"BSTAR":0.0010222799,"MEAN_MOTION_DOT":1.51e-6,"MEAN_MOTION_DDOT":0},{"OBJECT_NAME":"ARIANE 42P R\/B","OBJECT_ID":"1990-100C","EPOCH":"2026-03-09T12:32:42.482688","MEAN_MOTION":9.99442325,"ECCENTRICITY":0.28458045,"INCLINATION":7.105,"RA_OF_ASC_NODE":222.2711,"ARG_OF_PERICENTER":301.2034,"MEAN_ANOMALY":33.9685,"EPHEMERIS_TYPE":0,"CLASSIFICATION_TYPE":"U","NORAD_CAT_ID":20947,"ELEMENT_SET_NO":999,"REV_AT_EPOCH":38025,"BSTAR":0.000949907,"MEAN_MOTION_DOT":0.03043985,"MEAN_MOTION_DDOT":-4.682903e-6}]
